HAWK-6B                 
1 55324U 23011A   26167.78963350  .00003966  00000+0  17358-3 0  9999
2 55324  40.4998 354.3907 0002372 357.4083   2.6714 15.22930302187788
HAWK-6C                 
1 55326U 23011C   26167.78896905  .00003660  00000+0  16085-3 0  9999
2 55326  40.4991 351.2328 0003318 347.4641  12.6085 15.22927437187794
HAWK-6A                 
1 55327U 23011D   26166.93652945  .00004263  00000+0  18602-3 0  9997
2 55327  40.4997 357.8300 0003191 339.9740  20.0944 15.22922068187666
HAWK-7A                 
1 56191U 23054P   26167.65176773  .00004734  00000+0  17939-3 0  9999
2 56191  97.2703  55.0028 0004378  58.7308 301.4359 15.27356857176946
HAWK-7B                 
1 56193U 23054R   26167.65168301  .00004630  00000+0  17552-3 0  9995
2 56193  97.2728  53.2665 0003759  69.6030 290.5613 15.27354554176940
HAWK-7C                 
1 56200U 23054Y   26167.65157245  .00004593  00000+0  17415-3 0  9995
2 56200  97.2705  54.0354 0003734  61.3977 298.7637 15.27356269176941
