OBJECT_NAME,OBJECT_ID,EPOCH,MEAN_MOTION,ECCENTRICITY,INCLINATION,RA_OF_ASC_NODE,ARG_OF_PERICENTER,MEAN_ANOMALY,EPHEMERIS_TYPE,CLASSIFICATION_TYPE,NORAD_CAT_ID,ELEMENT_SET_NO,REV_AT_EPOCH,BSTAR,MEAN_MOTION_DOT,MEAN_MOTION_DDOT
HAWK-6B,2023-011A,2026-06-16T18:57:04.334400,15.22930302,.0002372,40.4998,354.3907,357.4083,2.6714,0,U,55324,999,18778,.17358E-3,.3966E-4,0
HAWK-6C,2023-011C,2026-06-16T18:56:06.925920,15.22927437,.0003318,40.4991,351.2328,347.4641,12.6085,0,U,55326,999,18779,.16085E-3,.366E-4,0
HAWK-6A,2023-011D,2026-06-15T22:28:36.144480,15.22922068,.00031912,40.4997,357.8300,339.9740,20.0944,0,U,55327,999,18766,.18602049E-3,.4263E-4,0
HAWK-7A,2023-054P,2026-06-16T15:38:32.731872,15.27356857,.0004378,97.2703,55.0028,58.7308,301.4359,0,U,56191,999,17694,.17939E-3,.4734E-4,0
HAWK-7B,2023-054R,2026-06-16T15:38:25.412064,15.27354554,.0003759,97.2728,53.2665,69.6030,290.5613,0,U,56193,999,17694,.17552E-3,.463E-4,0
HAWK-7C,2023-054Y,2026-06-16T15:38:15.859680,15.27356269,.0003734,97.2705,54.0354,61.3977,298.7637,0,U,56200,999,17694,.17415E-3,.4593E-4,0
